STARLINK-34595          
1 64749U 25144AB  26173.40911749  .00015217  00000+0  52469-3 0  9994
2 64749  53.1602  54.7113 0000704  75.9605 284.1474 15.30210413 55744
STARLINK-34531          
1 64750U 25144AC  26173.39223589  .00016288  00000+0  56063-3 0  9995
2 64750  53.1620  54.6094 0000892  91.6830 268.4273 15.30212472 55745
STARLINK-33965          
1 64755U 25147A   26173.18387469 -.00017769  00000+0 -51710-3 0  9999
2 64755  53.1585 115.7374 0001277  85.3652 274.7496 15.34333682 54815
STARLINK-34371          
1 64756U 25147B   26173.55926321  .00013060  00000+0  43176-3 0  9992
2 64756  53.1578 115.2277 0001229  90.1018 270.0124 15.31708325 54760
STARLINK-34401          
1 64757U 25147C   26173.53270147  .00031604  00000+0  94237-3 0  9997
2 64757  53.1577 114.3568 0001319  84.2152 275.9002 15.34406696 54753
STARLINK-34593          
1 64758U 25147D   26173.56417728  .00020027  00000+0  60239-3 0  9991
2 64758  53.1582 113.8361 0001948  89.8143 270.3083 15.34393916 54831
STARLINK-34598          
1 64759U 25147E   26173.55584574  .00019875  00000+0  59772-3 0  9994
2 64759  53.1609 114.4936 0000597  99.9276 260.1794 15.34404302 54776
STARLINK-34235          
1 64760U 25147F   26173.55794836  .00026648  00000+0  79679-3 0  9994
2 64760  53.1597 114.5141 0000715  91.7953 268.3131 15.34408707 54865
STARLINK-34635          
1 64761U 25147G   26173.54742995  .00011860  00000+0  36156-3 0  9996
2 64761  53.1603 114.4444 0001265  93.7262 266.3885 15.34404290 54828
STARLINK-34638          
1 64762U 25147H   26173.18596919  .00017447  00000+0  52592-3 0  9999
2 64762  53.1585 115.7478 0001296  92.7709 267.3442 15.34422842 54775
STARLINK-34534          
1 64763U 25147J   26173.53690940  .00022690  00000+0  68114-3 0  9991
2 64763  53.1567 114.3781 0000997  92.9395 267.1722 15.34377589 54820
STARLINK-34261          
1 64764U 25147K   26173.57041721  .00148115  00000+0  42750-2 0  9991
2 64764  53.1587 113.8764 0001655 120.6428 239.4739 15.34650156 54875
STARLINK-34566          
1 64765U 25147L   26173.19651390  .00027510  00000+0  82316-3 0  9997
2 64765  53.1570 115.8094 0001085 110.6746 249.4373 15.34368739 54772
STARLINK-34645          
1 64766U 25147M   26173.56413823  .00020935  00000+0  71678-3 0  9999
2 64766  53.1601 115.9643 0001047  83.4252 276.6868 15.30207649 54809
STARLINK-34639          
1 64767U 25147N   26173.52849478  .00016156  00000+0  48829-3 0  9997
2 64767  53.1590 114.3215 0001132  96.7193 263.3939 15.34397517 54777
STARLINK-34609          
1 64768U 25147P   26173.53046104  .00022017  00000+0  75320-3 0  9993
2 64768  53.1582 105.8168 0001852  89.8169 270.3044 15.30203504 54948
STARLINK-34246          
1 64769U 25147Q   26173.05991856  .00018519  00000+0  55790-3 0  9995
2 64769  53.1573 116.3803 0000865  72.7116 287.3981 15.34398623 54756
STARLINK-34618          
1 64770U 25147R   26173.56206748  .00018191  00000+0  54824-3 0  9995
2 64770  53.1599 113.8269 0000932  72.9042 287.2063 15.34397528 54763
STARLINK-34541          
1 64771U 25147S   26173.25322424  .00018071  00000+0  54514-3 0  9995
2 64771  53.1578 115.4518 0001295  94.0327 266.0824 15.34372734 54717
STARLINK-34652          
1 64772U 25147T   26173.25953344  .00019259  00000+0  57975-3 0  9990
2 64772  53.1579 115.4896 0001283 101.6270 258.4876 15.34395269 54784
STARLINK-34612          
1 64773U 25147U   26173.18177160  .00016634  00000+0  50240-3 0  9999
2 64773  53.1585 115.7167 0001970 132.8366 227.2803 15.34397346 54772
STARLINK-34621          
1 64774U 25147V   26173.55780685  .00013790  00000+0  47680-3 0  9997
2 64774  53.1611 115.9236 0000919  84.2498 275.8608 15.30202517 54739
STARLINK-34657          
1 64775U 25147W   26173.53059742  .00019550  00000+0  58820-3 0  9997
2 64775  53.1576 114.3345 0001188  75.4200 284.6934 15.34401885 54829
STARLINK-34637          
1 64776U 25147X   26173.54321975  .00019635  00000+0  59051-3 0  9990
2 64776  53.1585 114.4139 0001309  90.8851 269.2301 15.34411887 54752
STARLINK-34547          
1 64777U 25147Y   26173.56837892  .00017042  00000+0  51414-3 0  9998
2 64777  53.1588 113.8639 0001357  58.0554 302.0580 15.34414871 54776
STARLINK-34537          
1 64778U 25147Z   26173.48142278  .00013113  00000+0  45400-3 0  9990
2 64778  53.1597  93.1202 0001284  92.3315 267.7832 15.30204176 55148
STARLINK-34585          
1 64779U 25147AA  26173.54111703  .00013421  00000+0  40762-3 0  9995
2 64779  53.1595 114.4007 0001718  95.1848 264.9351 15.34401076 54776
STARLINK-34491          
1 64780U 25147AB  26173.56627632  .00019848  00000+0  59690-3 0  9991
2 64780  53.1593 113.8496 0001332  44.5367 315.5743 15.34406503 54832
STARLINK-34582          
1 64781U 25147AC  26173.55996520  .00024265  00000+0  72696-3 0  9996
2 64781  53.1563 113.8045 0001666  98.1778 261.9413 15.34400421 54764
STARLINK-34482          
1 64782U 25147AD  26173.53480679  .00012962  00000+0  39403-3 0  9998
2 64782  53.1565 114.3618 0001535 101.4532 258.6644 15.34405930 54860
