OBJECT_NAME,OBJECT_ID,EPOCH,MEAN_MOTION,ECCENTRICITY,INCLINATION,RA_OF_ASC_NODE,ARG_OF_PERICENTER,MEAN_ANOMALY,EPHEMERIS_TYPE,CLASSIFICATION_TYPE,NORAD_CAT_ID,ELEMENT_SET_NO,REV_AT_EPOCH,BSTAR,MEAN_MOTION_DOT,MEAN_MOTION_DDOT
STARLINK-34595,2025-144AB,2026-06-22T09:49:07.751136,15.30210413,.00007046,53.1602,54.7113,75.9605,284.1474,0,U,64749,999,5574,.52468597E-3,.15217E-3,0
STARLINK-34531,2025-144AC,2026-06-22T09:24:49.180896,15.30212472,.00008929,53.1620,54.6094,91.6830,268.4273,0,U,64750,999,5574,.56062979E-3,.16288E-3,0
STARLINK-33965,2025-147A,2026-06-22T04:24:46.773216,15.34333682,.00012778,53.1585,115.7374,85.3652,274.7496,0,U,64755,999,5481,-.5170969E-3,-.17769E-3,0
STARLINK-34371,2025-147B,2026-06-22T13:25:20.341344,15.31708325,.00012294,53.1578,115.2277,90.1018,270.0124,0,U,64756,999,5476,.43176182E-3,.1306E-3,0
STARLINK-34401,2025-147C,2026-06-22T12:47:05.407008,15.34406696,.00013199,53.1577,114.3568,84.2152,275.9002,0,U,64757,999,5475,.9423732E-3,.31604E-3,0
STARLINK-34593,2025-147D,2026-06-22T13:32:24.916992,15.34393916,.00019489,53.1582,113.8361,89.8143,270.3083,0,U,64758,999,5483,.60238707E-3,.20027E-3,0
STARLINK-34598,2025-147E,2026-06-22T13:20:25.071936,15.34404302,.00005977,53.1609,114.4936,99.9276,260.1794,0,U,64759,999,5477,.59772235E-3,.19875E-3,0
STARLINK-34235,2025-147F,2026-06-22T13:23:26.738304,15.34408707,.00007158,53.1597,114.5141,91.7953,268.3131,0,U,64760,999,5486,.79679127E-3,.26648E-3,0
STARLINK-34635,2025-147G,2026-06-22T13:08:17.947680,15.34404290,.00012651,53.1603,114.4444,93.7262,266.3885,0,U,64761,999,5482,.36155582E-3,.1186E-3,0
STARLINK-34638,2025-147H,2026-06-22T04:27:47.738016,15.34422842,.00012968,53.1585,115.7478,92.7709,267.3442,0,U,64762,999,5477,.52591768E-3,.17447E-3,0
STARLINK-34534,2025-147J,2026-06-22T12:53:08.972160,15.34377589,.00009979,53.1567,114.3781,92.9395,267.1722,0,U,64763,999,5482,.68113849E-3,.2269E-3,0
STARLINK-34261,2025-147K,2026-06-22T13:41:24.046944,15.34650156,.00016554,53.1587,113.8764,120.6428,239.4739,0,U,64764,999,5487,.42749994E-2,.148115E-2,0
STARLINK-34566,2025-147L,2026-06-22T04:42:58.800960,15.34368739,.00010851,53.1570,115.8094,110.6746,249.4373,0,U,64765,999,5477,.8231561E-3,.2751E-3,0
STARLINK-34645,2025-147M,2026-06-22T13:32:21.543072,15.30207649,.00010471,53.1601,115.9643,83.4252,276.6868,0,U,64766,999,5480,.71677839E-3,.20935E-3,0
STARLINK-34639,2025-147N,2026-06-22T12:41:01.948992,15.34397517,.00011324,53.1590,114.3215,96.7193,263.3939,0,U,64767,999,5477,.48829046E-3,.16156E-3,0
STARLINK-34609,2025-147P,2026-06-22T12:43:51.833856,15.30203504,.00018521,53.1582,105.8168,89.8169,270.3044,0,U,64768,999,5494,.75320238E-3,.22017E-3,0
STARLINK-34246,2025-147Q,2026-06-22T01:26:16.963584,15.34398623,.00008652,53.1573,116.3803,72.7116,287.3981,0,U,64769,999,5475,.55789815E-3,.18519E-3,0
STARLINK-34618,2025-147R,2026-06-22T13:29:22.630272,15.34397528,.00009325,53.1599,113.8269,72.9042,287.2063,0,U,64770,999,5476,.54824401E-3,.18191E-3,0
STARLINK-34541,2025-147S,2026-06-22T06:04:38.574336,15.34372734,.00012954,53.1578,115.4518,94.0327,266.0824,0,U,64771,999,5471,.54513914E-3,.18071E-3,0
STARLINK-34652,2025-147T,2026-06-22T06:13:43.689216,15.34395269,.00012835,53.1579,115.4896,101.6270,258.4876,0,U,64772,999,5478,.57974686E-3,.19259E-3,0
STARLINK-34612,2025-147U,2026-06-22T04:21:45.066240,15.34397346,.00019708,53.1585,115.7167,132.8366,227.2803,0,U,64773,999,5477,.50239533E-3,.16634E-3,0
STARLINK-34621,2025-147V,2026-06-22T13:23:14.511840,15.30202517,.00009197,53.1611,115.9236,84.2498,275.8608,0,U,64774,999,5473,.47679562E-3,.1379E-3,0
STARLINK-34657,2025-147W,2026-06-22T12:44:03.617088,15.34401885,.00011882,53.1576,114.3345,75.4200,284.6934,0,U,64775,999,5482,.58819524E-3,.1955E-3,0
STARLINK-34637,2025-147X,2026-06-22T13:02:14.186400,15.34411887,.00013092,53.1585,114.4139,90.8851,269.2301,0,U,64776,999,5475,.5905107E-3,.19635E-3,0
STARLINK-34547,2025-147Y,2026-06-22T13:38:27.938688,15.34414871,.00013579,53.1588,113.8639,58.0554,302.0580,0,U,64777,999,5477,.51413958E-3,.17042E-3,0
STARLINK-34537,2025-147Z,2026-06-22T11:33:14.928192,15.30204176,.00012841,53.1597,93.1202,92.3315,267.7832,0,U,64778,999,5514,.45400261E-3,.13113E-3,0
STARLINK-34585,2025-147AA,2026-06-22T12:59:12.511392,15.34401076,.00017187,53.1595,114.4007,95.1848,264.9351,0,U,64779,999,5477,.40762279E-3,.13421E-3,0
STARLINK-34491,2025-147AB,2026-06-22T13:35:26.274048,15.34406503,.00013327,53.1593,113.8496,44.5367,315.5743,0,U,64780,999,5483,.59689625E-3,.19848E-3,0
STARLINK-34582,2025-147AC,2026-06-22T13:26:20.993280,15.34400421,.0001666,53.1563,113.8045,98.1778,261.9413,0,U,64781,999,5476,.7269634E-3,.24265E-3,0
STARLINK-34482,2025-147AD,2026-06-22T12:50:07.306656,15.34405930,.00015356,53.1565,114.3618,101.4532,258.6644,0,U,64782,999,5486,.39402517E-3,.12962E-3,0
